STARLINK-5164           
1 54178U 22141X   26068.10515317 -.00019565  00000+0 -12164-2 0  9993
2 54178  53.2185   6.4240 0001110  61.6652 298.4453 15.08783445185774
DISKSAT B               
1 67220U 25305B   26068.81497770  .00012481  00000+0  82401-3 0  9990
2 67220  45.0018 250.2098 0003783 311.4052  48.6498 15.07484556 12311
